DELTA 2 R/B             
1 25876U 99041E   20045.47051850 -.00000031  00000-0  35275-4 0  9993
2 25876  51.7657  79.7859 0531046 342.5987  15.7335 14.04390524 51207
HELIOS 1B               
1 25977U 99064A   20045.50135859  .00000016  00000-0  91186-5 0  9992
2 25977  98.2613 196.1954 0002092  59.2048 300.9369 14.82459940 88054
TERRA                   
1 25994U 99068A   20045.49694286  .00000019  00000-0  14353-4 0  9990
2 25994  98.2029 121.4660 0001499  93.9034 266.2337 14.57091108 72264
SL-16 R/B               
1 26070U 00006B   20045.49554543 -.00000279  00000-0 -11830-3 0  9997
2 26070  71.0002  73.7368 0018414 307.5178  52.4271 14.15459993 35098
TITAN 4B R/B            
1 26474U 00047B   20045.42449086  .00000049  00000-0  15269-4 0  9992
2 26474  67.9934  57.0844 0058442 329.4295  30.3445 14.95912682 60695
ENVISAT                 
1 27386U 02009A   20045.57628543 -.00000002  00000-0  12855-4 0  9996
2 27386  98.1400  59.1191 0001182  93.2810  17.6569 14.37971311940746
IDEFIX & ARIANE 42P R/B 
1 27422U 02021B   20045.54625369 -.00000017  00000-0  94678-5 0  9991
2 27422  98.3349  11.8554 0011186 234.5547 125.4592 14.29281719927466
AQUA                    
1 27424U 02022A   20045.60795345  .00000077  00000-0  27186-4 0  9997
2 27424  98.2222 348.0034 0002338  42.1568  79.2076 14.57099312945831
CZ-4B R/B               
1 27432U 02024C   20045.59498964 -.00000037  00000-0  48119-5 0  9990
2 27432  99.0854  45.7007 0050711 164.7042 301.7571 14.14089255916140
MIDORI II (ADEOS-II)    
1 27597U 02056A   20045.46799879  .00000037  00000-0  32490-4 0  9995
2 27597  98.5056 356.2712 0001520  43.7431 316.3871 14.27432065894128
H-2A R/B                
1 27601U 02056E   20045.57738088  .00000036  00000-0  28365-4 0  9993
2 27601  98.2442  87.6138 0070940 286.7757 187.5039 14.31933325896967
CZ-4B R/B               
1 28059U 03049C   20045.40346422  .00000016  00000-0  15534-4 0  9995
2 28059  98.4893 320.5185 0050516 156.5876 203.7635 14.52587877864824
CZ-2C R/B               
1 28222U 04012C   20045.55874699  .00000222  00000-0  17297-4 0  9993
2 28222  97.6608   7.9036 0048771  94.0078 326.3171 15.10285338867295
SL-16 R/B               
1 28353U 04021B   20045.56925892 -.00000292  00000-0 -12828-3 0  9994
2 28353  71.0000 199.1455 0004929 193.2953 166.8041 14.14228324809623
CZ-4B R/B               
1 28415U 04035C   20045.58867940  .00000452  00000-0  33721-4 0  9991
2 28415  97.6320  88.4032 0052852  55.6892 304.9321 15.06804148844983
CZ-2C R/B               
1 28480U 04046B   20045.55905479 -.00000046  00000-0 -20779-5 0  9993
2 28480  98.0978  89.9963 0140994 231.5906 249.8340 14.25717229792763
ARIANE 5 R/B            
1 28499U 04049H   20045.31442799  .00000017  00000-0  96269-5 0  9994
2 28499  98.0506 146.7504 0091165 315.1368 110.7365 14.80007446817775
CZ-2D R/B               
1 28738U 05024B   20045.55907130  .00000219  00000-0  16437-4 0  9997
2 28738  97.3947  72.1619 0010423 248.9698 111.0418 15.11960783802682
SUZAKU (ASTRO-EII)      
1 28773U 05025A   20045.49216282  .00000676  00000-0  28710-4 0  9995
2 28773  31.3826 102.6098 0004529  39.1965 320.9009 15.17390658805091
ALOS (DAICHI)           
1 28931U 06002A   20045.52911233  .00000089  00000-0  26068-4 0  9991
2 28931  97.8351  37.4017 0001937  91.4096 268.7325 14.62681844749589
H-2A R/B                
1 28932U 06002B   20045.53783365  .00000237  00000-0  28088-4 0  9995
2 28932  98.3117  28.6657 0089029   7.7763 101.8482 14.92143501762668
AKARI (ASTRO-F)         
1 28939U 06005A   20045.50958519  .00002954  00000-0  81229-4 0  9991
2 28939  98.2180   5.5479 0096118  38.4075 322.3956 15.33629468761891
RESURS-DK 1             
1 29228U 06021A   20045.58848814  .00000053  00000-0  11353-4 0  9994
2 29228  69.9362 143.3216 0007726 282.4037  77.6259 15.02509773754144
GENESIS 1               
1 29252U 06029A   20045.36540147  .00000213  00000-0  20526-4 0  9993
2 29252  64.5247 347.3986 0023604 190.7495 169.3127 15.18025556749265
CZ-4B R/B               
1 29507U 06046C   20045.59431791  .00000198  00000-0  20384-4 0  9998
2 29507  97.7456  67.8225 0045269 221.6179 138.1596 15.00480519726794
CZ-2C R/B               
1 31114U 07010B   20045.58311571 -.00000048  00000-0 -35096-5 0  9992
2 31114  98.2773 266.6582 0058553 268.2032  91.2439 14.19307474665434
COSMO-SKYMED 1          
1 31598U 07023A   20045.52847610 -.00000238  00000-0 -23333-4 0  9995
2 31598  97.8849 230.4787 0001286  88.4742 271.6636 14.82158180686474
GENESIS 2               
1 31789U 07028A   20045.44639030  .00000226  00000-0  21560-4 0  9993
2 31789  64.5034  28.4789 0048973 258.4907 101.0714 15.17154729696351
COSMOS 2428             
1 31792U 07029A   20045.55294418 -.00000220  00000-0 -93310-4 0  9995
2 31792  70.9249 173.1012 0009606 263.9873  96.0153 14.12388713651283
SL-16 R/B               
1 31793U 07029B   20045.59034986 -.00000191  00000-0 -74823-4 0  9997
2 31793  70.9771 146.5527 0002223 270.0423 182.5753 14.14428182652170
KORONAS-FOTON           
1 33504U 09003A   20045.37990659  .00000737  00000-0  37037-4 0  9997
2 33504  82.4446 346.2716 0018971 353.4956   6.6027 15.15566943608690
H-2A R/B                
1 38341U 12025E   20045.45285399  .00000146  00000-0  24739-4 0  9995
2 38341  98.4799 192.5822 0054363 270.3626  89.1357 14.83983371418972
CUSAT 2 & FALCON 9 R/B  
1 39271U 13055G   20045.52064108  .00002877  00000-0  69141-4 0  9992
2 39271  80.9663  40.1733 0593407 182.4874 177.3346 14.46854952332801
SL-4 R/B                
1 39679U 14021B   20045.18548999 -.00000132  00000-0  11922-4 0  9992
2 39679  51.6180 324.0610 0171798 235.0620 123.4109 15.06297208320290
ALOS-2                  
1 39766U 14029A   20045.54014549  .00000107  00000-0  21199-4 0  9994
2 39766  97.9199 143.9240 0001453  89.1575 270.9801 14.79471218309371
SL-27 R/B               
1 40354U 14084B   20045.51747429  .00000536  00000-0  14438-4 0  9991
2 40354  74.7374 284.4606 0037939 178.2481 181.8872 15.40025814289051
YAOGAN 29               
1 41038U 15069A   20045.54921103  .00000007  00000-0  78137-5 0  9991
2 41038  98.0000  33.7974 0000994  41.1406 318.9878 14.80435602227947
ASTRO-H (HITOMI)        
1 41337U 16012A   20045.51519924  .00000229  00000-0  11627-4 0  9999
2 41337  31.0064  75.5642 0012464 286.4585  73.4680 14.98650839218897
SHENZHOU-11 MODULE      
1 41868U 16061G   20045.47691875  .00021049  83406-5  80375-4 0  9998
2 41868  42.7908 193.5467 0012468 327.3412 141.6859 15.88754204186291
HXMT (HUIYAN)           
1 42758U 17034A   20045.34169237  .00000126  00000-0  21655-4 0  9999
2 42758  43.0203 356.8249 0012154 323.0291 171.3328 15.08754213147126
CZ-2C R/B               
1 43521U 18054D   20045.51904304  .00000444  00000-0  26486-4 0  9992
2 43521  35.1520 223.6882 0082138 104.6686 256.3150 15.10881029 90395
AEOLUS                  
1 43600U 18066A   20045.56595971  .00021182  00000-0  84245-4 0  9993
2 43600  96.7222  53.8062 0006523  92.3975 267.8045 15.86653428 85720
SAOCOM 1A               
1 43641U 18076A   20045.46913230  .00000032  00000-0  10601-4 0  9996
2 43641  97.8855 233.3515 0001522  80.7648 279.3738 14.82158671 73234
CREW DRAGON DEMO-1 DEB  
1 44064U 19011B   20045.47289063  .00008848  00000-0  10502-3 0  9999
2 44064  51.6391 219.3168 0002938 300.8583  59.2109 15.62048303 53516
